{
  "type": "FeatureCollection",
  "name": "dronbreen_outline_20240828",
  "crs": {
    "type": "name",
    "properties": {
      "name": "urn:ogc:def:crs:EPSG::32633"
    }
  },
  "features": [
    {
      "type": "Feature",
      "properties": {},
      "geometry": {
        "type": "Polygon",
        "coordinates": [
          [
            [
              541463.523384085972793,
              8673734.16176119633019
            ],
            [
              541525.093615896534175,
              8673866.097972217947245
            ],
            [
              541522.161700096097775,
              8674065.468246651813388
            ],
            [
              541554.412773901596665,
              8674129.970394263044
            ],
            [
              541577.868100305669941,
              8674185.676794473081827
            ],
            [
              541577.868100305669941,
              8674346.932163501158357
            ],
            [
              541539.75319489906542,
              8674449.549216518178582
            ],
            [
              541519.22978429554496,
              8674569.757764339447021
            ],
            [
              541563.208521303138696,
              8674645.987575152888894
            ],
            [
              541627.710668914369307,
              8674631.327996149659157
            ],
            [
              541589.595763507764786,
              8674754.468459771946073
            ],
            [
              541654.097911118878983,
              8674795.515280978754163
            ],
            [
              541712.736227129003964,
              8674766.196122974157333
            ],
            [
              541727.39580613153521,
              8674816.038691582158208
            ],
            [
              541701.008563927025534,
              8674886.404670795425773
            ],
            [
              541662.893658520421013,
              8674980.225976411253214
            ],
            [
              541683.417069123941474,
              8675094.5706926304847
            ],
            [
              541698.076648126472719,
              8675123.88985063508153
            ],
            [
              541677.553237522952259,
              8675238.234566856175661
            ],
            [
              541665.825574320857413,
              8675334.987788271158934
            ],
            [
              541689.280900724814273,
              8675437.604841290041804
            ],
            [
              541724.463890330982395,
              8675569.541052313521504
            ],
            [
              541744.987300934502855,
              8675654.566610528156161
            ],
            [
              541838.808606550679542,
              8675584.200631314888597
            ],
            [
              541888.651175159262493,
              8675584.200631314888597
            ],
            [
              541967.81290177302435,
              8675513.834652103483677
            ],
            [
              542044.042712586116977,
              8675390.694188483059406
            ],
            [
              542120.272523399326019,
              8675238.234566856175661
            ],
            [
              542178.910839409451,
              8675076.979197828099132
            ],
            [
              542234.617239619023167,
              8674871.745091792196035
            ],
            [
              542293.255555629148148,
              8674660.647154156118631
            ],
            [
              542369.48536644235719,
              8674405.570479512214661
            ],
            [
              542422.259850851492956,
              8674203.268289277330041
            ],
            [
              542395.872608646866865,
              8673851.438393216580153
            ],
            [
              542390.00877704587765,
              8673681.387276787310839
            ],
            [
              542381.21302964433562,
              8673482.017002353444695
            ],
            [
              542351.893871639273129,
              8673203.485001305118203
            ],
            [
              542310.847050432232209,
              8673012.910474272444844
            ],
            [
              542255.140650222543627,
              8672790.084873434156179
            ],
            [
              542214.093829015502706,
              8672693.331652017310262
            ],
            [
              542228.753408018033952,
              8672517.416703986003995
            ],
            [
              542240.481071220012382,
              8672423.595398370176554
            ],
            [
              542351.893871639273129,
              8672165.586807925254107
            ],
            [
              542483.830082662054338,
              8672010.19527049921453
            ],
            [
              542565.923725076252595,
              8671986.739944094792008
            ],
            [
              542633.357788487919606,
              8671898.782470079138875
            ],
            [
              542612.834377884282731,
              8671740.459016852080822
            ],
            [
              542671.472693894407712,
              8671649.569627037271857
            ],
            [
              542785.817410114221275,
              8671573.339816223829985
            ],
            [
              542850.319557725335471,
              8671511.769584413617849
            ],
            [
              542821.000399720272981,
              8671356.378046985715628
            ],
            [
              542917.753621137002483,
              8671300.6716467756778
            ],
            [
              542999.84726355120074,
              8671335.854636382311583
            ],
            [
              543120.055811371887103,
              8671382.765289191156626
            ],
            [
              543240.264359192689881,
              8671347.582299584522843
            ],
            [
              543325.289917407324538,
              8671417.948278795927763
            ],
            [
              543363.404822813929059,
              8671631.978132233023643
            ],
            [
              543266.651601397199556,
              8671708.207943046465516
            ],
            [
              543161.102632579044439,
              8671799.097332863137126
            ],
            [
              543216.809032788616605,
              8671931.033543884754181
            ],
            [
              543298.902675202814862,
              8671972.080365091562271
            ],
            [
              543339.949496409855783,
              8672130.403818318620324
            ],
            [
              543430.83888622559607,
              8672197.837881730869412
            ],
            [
              543644.868739662575535,
              8672265.271945144981146
            ],
            [
              543785.600698086898774,
              8672186.110218530520797
            ],
            [
              543938.060319713200442,
              8671998.467607298865914
            ],
            [
              544014.290130526409484,
              8671898.78247008100152
            ],
            [
              544116.907183544128202,
              8671778.573922259733081
            ],
            [
              544160.885920551721938,
              8671690.616448244079947
            ],
            [
              544055.336951733450405,
              8671582.135563626885414
            ],
            [
              543911.673077508690767,
              8671599.727058429270983
            ],
            [
              543920.468824910232797,
              8671511.769584413617849
            ],
            [
              544052.405035933014005,
              8671400.35678399540484
            ],
            [
              544055.336951733450405,
              8671253.760993968695402
            ],
            [
              543979.107140920357779,
              8671200.986509559676051
            ],
            [
              543897.013498506159522,
              8671057.322635335847735
            ],
            [
              543823.715603493503295,
              8671028.003477331250906
            ],
            [
              543685.915560869732872,
              8670978.160908721387386
            ],
            [
              543580.366592051461339,
              8670893.135350506752729
            ],
            [
              543416.179307223064825,
              8670755.335307883098722
            ],
            [
              543313.562254205346107,
              8670728.948065679520369
            ],
            [
              543090.736653366824612,
              8670731.8799814786762
            ],
            [
              543005.711095152189955,
              8670793.450213288888335
            ],
            [
              542891.366378932376392,
              8670837.428950296714902
            ],
            [
              542733.042925705085509,
              8670837.428950296714902
            ],
            [
              542571.78755667724181,
              8670857.952360900118947
            ],
            [
              542457.442840457428247,
              8670922.454508511349559
            ],
            [
              542401.736440247856081,
              8671145.280109349638224
            ],
            [
              542343.098124237731099,
              8671347.582299584522843
            ],
            [
              542258.072566022980027,
              8671511.769584413617849
            ],
            [
              542181.8427552098874,
              8671602.658974228426814
            ],
            [
              541970.744817573344335,
              8671670.093037640675902
            ],
            [
              541821.217111747595482,
              8671714.071774648502469
            ],
            [
              541592.527679308084771,
              8671775.642006458714604
            ],
            [
              541519.229784295428544,
              8671728.731353649869561
            ],
            [
              541530.957447497406974,
              8671561.612153021618724
            ],
            [
              541536.82127909839619,
              8671397.424868192523718
            ],
            [
              541542.68511069950182,
              8671365.173794386908412
            ],
            [
              541478.182963088271208,
              8671259.62482556886971
            ],
            [
              541551.480858100927435,
              8671183.395014755427837
            ],
            [
              541721.531974530313164,
              8671142.348193548619747
            ],
            [
              541809.489448545500636,
              8671010.411982527002692
            ],
            [
              541900.378838361240923,
              8670869.680024102330208
            ],
            [
              541947.289491169387475,
              8670717.220402475446463
            ],
            [
              542032.315049384022132,
              8670514.918212240561843
            ],
            [
              542029.383133583469316,
              8670362.458590613678098
            ],
            [
              541956.08523857081309,
              8670227.590463791042566
            ],
            [
              541844.672438151668757,
              8670154.29256877861917
            ],
            [
              541674.621321722283028,
              8670230.522379592061043
            ],
            [
              541486.978710489813238,
              8670300.888358803465962
            ],
            [
              541551.480858100927435,
              8670426.96073822490871
            ],
            [
              541595.459595108637586,
              8670541.305454446002841
            ],
            [
              541469.387215686845593,
              8670690.83316027186811
            ],
            [
              541252.425446449313313,
              8670819.837455492466688
            ],
            [
              541132.216898628510535,
              8670822.769371293485165
            ],
            [
              541023.736014009686187,
              8670796.382129088044167
            ],
            [
              540844.889150178874843,
              8670690.833160270005465
            ],
            [
              540780.387002567760646,
              8670509.05438063852489
            ],
            [
              540727.61251815862488,
              8670380.050085416063666
            ],
            [
              540692.429528552456759,
              8670333.139432607218623
            ],
            [
              540674.838033749489114,
              8670098.586168566718698
            ],
            [
              540707.08910755510442,
              8669931.466967936605215
            ],
            [
              540718.81677075708285,
              8669740.892440903931856
            ],
            [
              540742.272097161156125,
              8669556.181745471432805
            ],
            [
              540830.229571176343597,
              8669391.994460644200444
            ],
            [
              540874.208308183937334,
              8669274.717828623950481
            ],
            [
              540883.004055585479364,
              8669113.462459595873952
            ],
            [
              540900.595550388447009,
              8668987.390080174431205
            ],
            [
              541000.280687605729327,
              8668884.773027155548334
            ],
            [
              540956.301950598135591,
              8668802.679384741932154
            ],
            [
              540792.114665769739076,
              8668691.266584323719144
            ],
            [
              540560.493317529791966,
              8668741.109152931720018
            ],
            [
              540381.646453698864207,
              8668782.155974138528109
            ],
            [
              540255.574074277072214,
              8668697.130415923893452
            ],
            [
              540147.093189658364281,
              8668515.351636292412877
            ],
            [
              539988.769736430956982,
              8668459.64523608237505
            ],
            [
              539982.905904829967767,
              8668310.117530256509781
            ],
            [
              539930.131420420832001,
              8668266.138793248683214
            ],
            [
              539686.782408978790045,
              8668307.18561445735395
            ],
            [
              539507.935545147978701,
              8668330.640940859913826
            ],
            [
              539378.931249925633892,
              8668354.096267264336348
            ],
            [
              539370.135502524208277,
              8668474.304815085604787
            ],
            [
              539469.82063974137418,
              8668688.334668522700667
            ],
            [
              539590.029187562176958,
              8668940.479427365586162
            ],
            [
              539727.829230185947381,
              8669139.84970180131495
            ],
            [
              539839.242030605208129,
              8669345.083807835355401
            ],
            [
              539912.539925617864355,
              8669556.181745471432805
            ],
            [
              539974.110157428425737,
              8669655.866882689297199
            ],
            [
              539827.514367403113283,
              8669696.913703896105289
            ],
            [
              539654.531335173291154,
              8669635.343472085893154
            ],
            [
              539519.663208349957131,
              8669544.454082271084189
            ],
            [
              539370.135502524208277,
              8669356.811471037566662
            ],
            [
              539311.497186514083296,
              8669125.190122798085213
            ],
            [
              539246.995038902852684,
              8668943.411343166604638
            ],
            [
              539214.743965097353794,
              8668673.675089521333575
            ],
            [
              539197.152470294269733,
              8668506.555888893082738
            ],
            [
              539200.084386094822548,
              8668427.394162278622389
            ],
            [
              539041.760932867415249,
              8668301.321782857179642
            ],
            [
              538859.98215323605109,
              8668260.274961650371552
            ],
            [
              538569.722488985862583,
              8668248.547298448160291
            ],
            [
              538464.173520167707466,
              8668260.274961650371552
            ],
            [
              538385.011793554062024,
              8668389.279256872832775
            ],
            [
              538414.330951559124514,
              8668550.534625900909305
            ],
            [
              538405.535204157582484,
              8668788.019805740565062
            ],
            [
              538428.99053056165576,
              8668969.798585372045636
            ],
            [
              538475.901183369685896,
              8669131.053954400122166
            ],
            [
              538367.420298750977963,
              8669353.87955523841083
            ],
            [
              538270.667077334248461,
              8669441.837029250338674
            ],
            [
              538121.139371508383192,
              8669506.339176861569285
            ],
            [
              538000.930823687696829,
              8669620.683893080800772
            ],
            [
              537927.632928675040603,
              8669740.892440902069211
            ],
            [
              537883.654191667446867,
              8669881.624399326741695
            ],
            [
              537889.518023268436082,
              8669957.854210140183568
            ],
            [
              537825.015875657321885,
              8669993.037199744954705
            ],
            [
              537710.671159437508322,
              8669987.173368144780397
            ],
            [
              537649.100927626946941,
              8670045.811684153974056
            ],
            [
              537619.78176962188445,
              8670092.722336962819099
            ],
            [
              537643.237096025841311,
              8670166.020231975242496
            ],
            [
              537613.91793802077882,
              8670262.773453392088413
            ],
            [
              537643.237096025841311,
              8670330.207516804337502
            ],
            [
              537798.628633452695794,
              8670412.301159217953682
            ],
            [
              537898.313770669978112,
              8670447.484148824587464
            ],
            [
              538138.730866311467253,
              8670500.258633233606815
            ],
            [
              538431.92244636209216,
              8670485.599054230377078
            ],
            [
              538648.88421559962444,
              8670450.416064625605941
            ],
            [
              538868.77790063759312,
              8670482.667138431221247
            ],
            [
              539032.965185465873219,
              8670602.875686252489686
            ],
            [
              539217.675880897790194,
              8670658.582086460664868
            ],
            [
              539428.773818534216844,
              8670731.879981473088264
            ],
            [
              539595.893019163166173,
              8670802.245960686355829
            ],
            [
              539675.054745776811615,
              8670942.977919111028314
            ],
            [
              539751.284556590020657,
              8671022.139645723626018
            ],
            [
              539845.105862206197344,
              8671077.846045933663845
            ],
            [
              539950.654831024352461,
              8671209.782256957143545
            ],
            [
              540018.088894436019473,
              8671388.629120787605643
            ],
            [
              540223.323000471456908,
              8671640.773879628628492
            ],
            [
              540211.595337269478478,
              8671781.505838053300977
            ],
            [
              540302.484727085218765,
              8671945.693122882395983
            ],
            [
              540425.625190706457943,
              8672133.335734114050865
            ],
            [
              540507.7188331206562,
              8672241.816618733108044
            ],
            [
              540534.106075325165875,
              8672291.659187341108918
            ],
            [
              540554.629485928686336,
              8672426.527314165607095
            ],
            [
              540619.131633539800532,
              8672605.374177996069193
            ],
            [
              540692.429528552573174,
              8672793.016789227724075
            ],
            [
              540786.250834168749861,
              8672875.110431643202901
            ],
            [
              540891.799802986904979,
              8672954.272158255800605
            ],
            [
              541044.259424613323063,
              8673092.072200879454613
            ],
            [
              541202.582877840613946,
              8673270.919064711779356
            ],
            [
              541378.497825871105306,
              8673584.634055366739631
            ],
            [
              541463.523384085972793,
              8673734.16176119633019
            ]
          ]
        ]
      }
    }
  ]
}